{
  "type": "Feature",
  "geometry": {
    "type": "Polygon",
    "coordinates": [
      [
        [
          72.32,
          18.78
        ],
        [
          72.39,
          18.830000000000002
        ],
        [
          72.395,
          18.828
        ],
        [
          72.32499999999999,
          18.778000000000002
        ],
        [
          72.32,
          18.78
        ]
      ]
    ]
  },
  "properties": {
    "detection_id": "DET_20260925_SAR_001",
    "observation_utc": "2026-09-25T12:00:00+00:00",
    "area_km2": 4.56,
    "perimeter_km": 19.59,
    "centroid": [
      72.35,
      18.799200000000003
    ],
    "orientation_deg": 53.57,
    "confidence": 0.94
  }
}