{
  "type": "Feature",
  "geometry": {
    "type": "Polygon",
    "coordinates": [
      [
        [
          72.17608874092608,
          18.625540505478735
        ],
        [
          72.17614041624859,
          18.624328901599636
        ],
        [
          72.18351420660814,
          18.617984994075233
        ],
        [
          72.2540434702037,
          18.667672428905657
        ],
        [
          72.27296629116564,
          18.681282296371705
        ],
        [
          72.28101238451733,
          18.689736639667256
        ],
        [
          72.29137692691938,
          18.702157174959922
        ],
        [
          72.29598786334327,
          18.71257261654923
        ],
        [
          72.26623755616859,
          18.696064620274583
        ],
        [
          72.20494315980864,
          18.652637381326862
        ],
        [
          72.20144237040569,
          18.649837827858068
        ],
        [
          72.17608874092608,
          18.625540505478735
        ]
      ]
    ]
  },
  "properties": {
    "spill_event_id": "DET_20260925_CASE-001",
    "direction": "backward",
    "simulation_duration_hours": 12.0,
    "origin_time_window_utc": [
      "2026-09-25T00:00:00+00:00",
      "2026-09-25T12:00:00+00:00"
    ],
    "parameters": {
      "mean_windage": 0.03,
      "windage_std": 0.005,
      "diffusion_coeff_m2s": 1.0,
      "step_minutes": 30.0,
      "envelope_area_km2": 23.77,
      "envelope_centroid": [
        72.23165351060342,
        18.662112991045472
      ],
      "origin_sigma_km": 1.698,
      "origin_area90_km2": 41.86,
      "origin_insufficient": false,
      "origin_insufficient_reason": ""
    },
    "provenance": "SIM"
  }
}