{
  "type": "Feature",
  "geometry": {
    "type": "Polygon",
    "coordinates": [
      [
        [
          69.66006471343259,
          22.58625142047954
        ],
        [
          69.6928587613959,
          22.581007396107097
        ],
        [
          69.70790063434598,
          22.58856936493441
        ],
        [
          69.72787658798559,
          22.5990971528878
        ],
        [
          69.76077016002861,
          22.61931340833064
        ],
        [
          69.77575414376315,
          22.66048354737686
        ],
        [
          69.77113407657299,
          22.66529336762506
        ],
        [
          69.73297373512708,
          22.68193758083181
        ],
        [
          69.6862379846838,
          22.65096950030839
        ],
        [
          69.66525163713392,
          22.632928821474017
        ],
        [
          69.66006471343259,
          22.58625142047954
        ]
      ]
    ]
  },
  "properties": {
    "spill_event_id": "DET_20260925_CASE-002",
    "direction": "backward",
    "simulation_duration_hours": 12.0,
    "origin_time_window_utc": [
      "2026-09-25T00:00:00+00:00",
      "2026-09-25T12:00:00+00:00"
    ],
    "parameters": {
      "mean_windage": 0.03,
      "windage_std": 0.02,
      "diffusion_coeff_m2s": 25.0,
      "step_minutes": 30.0,
      "envelope_area_km2": 81.22,
      "envelope_centroid": [
        69.71280792253656,
        22.622918452803198
      ],
      "origin_sigma_km": 1.499,
      "origin_area90_km2": 32.62,
      "origin_insufficient": false,
      "origin_insufficient_reason": ""
    },
    "provenance": "SIM"
  }
}