{
  "type": "Feature",
  "geometry": {
    "type": "Polygon",
    "coordinates": [
      [
        [
          80.10535888750837,
          13.049128812276486
        ],
        [
          80.1172730410587,
          13.03862030803406
        ],
        [
          80.14529164431704,
          13.05834560960736
        ],
        [
          80.23933651935187,
          13.131024831950116
        ],
        [
          80.248633115907,
          13.139957870839117
        ],
        [
          80.26027251327216,
          13.152897144311392
        ],
        [
          80.26116785817077,
          13.169820393825022
        ],
        [
          80.22807761659489,
          13.151955039966593
        ],
        [
          80.13775290987914,
          13.078822839436135
        ],
        [
          80.13437598179092,
          13.07603190185201
        ],
        [
          80.10568199696135,
          13.050437218172098
        ],
        [
          80.10535888750837,
          13.049128812276486
        ]
      ]
    ]
  },
  "properties": {
    "spill_event_id": "DET_20260925_CASE-003",
    "direction": "backward",
    "simulation_duration_hours": 12.0,
    "origin_time_window_utc": [
      "2026-09-25T00:00:00+00:00",
      "2026-09-25T12:00:00+00:00"
    ],
    "parameters": {
      "mean_windage": 0.03,
      "windage_std": 0.005,
      "diffusion_coeff_m2s": 1.0,
      "step_minutes": 30.0,
      "envelope_area_km2": 47.45,
      "envelope_centroid": [
        80.17404841436004,
        13.095514231878907
      ],
      "origin_sigma_km": 2.114,
      "origin_area90_km2": 64.93,
      "origin_insufficient": false,
      "origin_insufficient_reason": ""
    },
    "provenance": "SIM"
  }
}